satname,norad_id,inclination_deg,eccentricity,mean_motion_rev_per_day,perigee_km,apogee_km,l1,l2
STARLINK-1506,45747,53.0619,0.0001971,15.2170313,499.3473503511277,502.0589891460422,1 45747U 20038T   25312.66604505  .00016903  00000+0  74994-3 0  9999,2 45747  53.0619  40.3548 0001971 274.7147  85.3624 15.21703130298232
STARLINK-1464,45751,53.0548,0.0001381,15.06393515,546.275040219889,548.1878269812496,1 45751U 20038X   25312.48271473  .00011456  00000+0  78684-3 0  9996,2 45751  53.0548  40.7374 0001381  63.9987 296.1145 15.06393515298217
STARLINK-1477,45754,53.0547,0.0002038,15.07234885,543.243072078064,546.0648016639325,1 45754U 20038AA  25312.62694850  .00029045  00000+0  19171-2 0  9991,2 45754  53.0547  40.0532 0002038  20.8368 339.2704 15.07234885298230
STARLINK-1478,45755,53.0568,0.0001641,15.06390144,546.1053106680629,548.3782199788411,1 45755U 20038AB  25312.44951993 -.00003542  00000+0 -21903-3 0  9999,2 45755  53.0568  40.8834 0001641  91.3822 268.7355 15.06390144298197
STARLINK-1484,45756,53.0172,0.0003054,15.62557761,378.20773196406117,382.33576802855896,1 45756U 20038AC  25312.91667823  .00186271  00000+0  20088-2 0  9999,2 45756  53.0172 301.1125 0003054  41.3451  26.1237 15.62557761  5955
STARLINK-1493,45759,53.0555,0.0001331,15.06448652,546.1407065316553,547.9841946253991,1 45759U 20038AF  25312.63751200  .00021638  00000+0  14652-2 0  9999,2 45759  53.0555  40.0406 0001331  81.0132 279.1008 15.06448652298223
STARLINK-1494,45760,53.0557,0.0003461,15.5202877,408.453752089511,413.1530566374122,1 45760U 20038AG  25312.58754816  .00050761  00000+0  83057-3 0  9996,2 45760  53.0557  22.7755 0003461  32.7948 327.3275 15.52028770298470
STARLINK-1502,45764,53.0553,0.0001291,15.06401215,546.3137721226849,548.1018961588607,1 45764U 20038AL  25312.53799773  .00004694  00000+0  33377-3 0  9990,2 45764  53.0553  40.4890 0001291  87.1782 272.9355 15.06401215298221
STARLINK-1470,45772,53.0526,0.0003233,15.18258407,508.8767196337576,513.3313028716348,1 45772U 20038AU  25312.46437691  .00033438  00000+0  16202-2 0  9994,2 45772  53.0526  12.6401 0003233 289.2162  70.8482 15.18258407298608
STARLINK-1482,45773,53.0546,0.0001621,15.06398356,546.0939967480772,548.3391963840841,1 45773U 20038AV  25312.56931065  .00018370  00000+0  12490-2 0  9993,2 45773  53.0546  20.3478 0001621  83.7319 276.3854 15.06398356298501
STARLINK-1496,45780,53.0546,0.0001389,15.06411365,546.2147999925764,548.1386521456789,1 45780U 20038BC  25312.60250088  .00013349  00000+0  91309-3 0  9993,2 45780  53.0546  20.1974 0001389  82.9855 277.1292 15.06411365298494
STARLINK-1497,45781,53.0415,0.0006366,15.56248042,394.213125639415,402.84117443524156,1 45781U 20038BD  25312.91667823  .00131760  00000+0  18188-2 0  9998,2 45781  53.0415 321.2206 0006366 333.4510  25.9294 15.56248042  5767
STARLINK-1510,45784,53.0313,0.0003649,15.73260682,347.1302263085681,352.0401179497876,1 45784U 20038BG  25312.91667823  .00134569  00000+0  94510-3 0  9995,2 45784  53.0313 296.4188 0003649  76.3498 289.7015 15.73260682  6011
STARLINK-1513,45786,53.0568,0.0001311,15.06404284,546.2905166517758,548.1063396010304,1 45786U 20038BJ  25312.56562350  .00000976  00000+0  84380-4 0  9996,2 45786  53.0568  20.3665 0001311  89.3662 270.7478 15.06404284298504
STARLINK-1522,46027,53.0548,0.000139,15.06383766,546.2986828914418,548.2239436225263,1 46027U 20055A   25312.28088304 -.00003765  00000+0 -23409-3 0  9990,2 46027  53.0548 311.6416 0001390  82.7036 277.4111 15.06383766290589
STARLINK-1523,46028,53.0535,0.0001329,15.06400572,546.2894262508516,548.1301834315791,1 46028U 20055B   25312.69371850  .00002207  00000+0  16698-3 0  9997,2 46028  53.0535 309.7940 0001329  92.0510 268.0631 15.06400572290666
STARLINK-1526,46029,53.0528,0.0001506,15.06407601,546.1453080815099,548.2312160504443,1 46029U 20055C   25312.68633865  .00003114  00000+0  22780-3 0  9991,2 46029  53.0528 309.8196 0001506  82.4394 277.6766 15.06407601290657
STARLINK-1555,46032,53.0542,0.00014,15.06413712,546.1999900373312,548.1390758665575,1 46032U 20055F   25312.27351430  .00006341  00000+0  44402-3 0  9995,2 46032  53.0542 311.6742 0001400  95.6842 264.4307 15.06413712290590
STARLINK-1556,46033,53.0544,0.0001365,15.06384475,546.3138236627801,548.2044568090641,1 46033U 20055G   25312.71953326 -.00000136  00000+0  97894-5 0  9999,2 46033  53.0544 309.6758 0001365  84.1411 275.9733 15.06384475290630
STARLINK-1557,46034,53.0551,0.0001257,15.06408418,546.3152450301432,548.0562711715284,1 46034U 20055H   25312.72319722 -.00001759  00000+0 -99197-4 0  9997,2 46034  53.0551 309.6580 0001257  94.1614 265.9519 15.06408418290633
STARLINK-1558,46035,53.0535,0.0001102,15.06404029,546.4360376107779,547.9623817113861,1 46035U 20055J   25312.73057477  .00002156  00000+0  16353-3 0  9997,2 46035  53.0535 309.6255 0001102 103.3474 256.7638 15.06404029290668
STARLINK-1560,46036,53.0544,0.0001415,15.06415013,546.1856153274748,548.1454759478911,1 46036U 20055K   25312.25140733  .00005993  00000+0  42070-3 0  9990,2 46036  53.0544 311.7788 0001415  95.9687 264.1463 15.06415013290599
STARLINK-1567,46038,53.0548,0.000147,15.06385678,546.2374204626931,548.2734858439198,1 46038U 20055M   25312.26248202  .00000587  00000+0  58354-4 0  9990,2 46038  53.0548 311.7217 0001470  94.6499 265.4658 15.06385678290582
STARLINK-1569,46039,53.0548,0.0001677,15.06397638,546.0574149703662,548.380179304726,1 46039U 20055N   25312.73427617  .00002097  00000+0  15967-3 0  9992,2 46039  53.0548 309.6091 0001677  88.9182 271.1999 15.06397638290652
STARLINK-1582,46043,53.0558,0.000159,15.06404316,546.0972017339991,548.299458368956,1 46043U 20055S   25312.27721020  .00001392  00000+0  11231-3 0  9998,2 46043  53.0558 311.6587 0001590  83.8374 276.2796 15.06404316290587
STARLINK-1591,46045,53.0557,0.0001443,15.0639122,546.2391358244668,548.2377991843896,1 46045U 20055U   25312.70110637  .00000863  00000+0  76864-4 0  9990,2 46045  53.0557 309.7575 0001443  90.3686 269.7468 15.06391220290637
STARLINK-1524,46047,53.0548,0.0001495,15.06408803,546.1492425665947,548.2199137184598,1 46047U 20055W   25312.25600846  .00002679  00000+0  19866-3 0  9993,2 46047  53.0548 301.7557 0001495  98.1749 261.9409 15.06408803290729
STARLINK-1527,46048,53.0547,0.0001485,15.06411363,546.1483231095317,548.2051412879955,1 46048U 20055X   25312.25232618  .00003871  00000+0  27851-3 0  9990,2 46048  53.0547 301.7713 0001485  94.3293 265.7866 15.06411363290706
